{"type": "FeatureCollection", "features": [ {"type": "Feature", "properties": {"norad_id": 34375, "name": "IRIDIUM 33 DEB", "group": "iridium-33-debris", "lat": -5.854558704027467, "lon": -179.37786017963035, "alt_km": 871.6568542394352, "timestamp": "2025-12-16T23:36:36.583232+00:00", "meta": {"OBJECT_NAME": "IRIDIUM 33 DEB", "OBJECT_ID": "1997-051FT", "EPOCH": "2025-12-16T07:31:38.392320", "MEAN_MOTION": 14.17998956, "ECCENTRICITY": 0.01035094, "INCLINATION": 86.4323, "RA_OF_ASC_NODE": 181.2588, "ARG_OF_PERICENTER": 115.5356, "MEAN_ANOMALY": 61.071, "EPHEMERIS_TYPE": 0, "CLASSIFICATION_TYPE": "U", "NORAD_CAT_ID": 34375, "ELEMENT_SET_NO": 999, "REV_AT_EPOCH": 86762, "BSTAR": 0.00040162427, "MEAN_MOTION_DOT": 8.86e-06, "MEAN_MOTION_DDOT": 0}, "tle": {"line1": "1 34375U 97051FT  25350.31363880  .00000886  00000+0  40162-3 0  9998", "line2": "2 34375  86.4323 181.2588 0103509 115.5356  61.0710 14.17998956867620"}}, "geometry": {"type": "Point", "coordinates": [-179.37786017963035, -5.854558704027467]}}, {"type": "Feature", "properties": {"norad_id": 34376, "name": "IRIDIUM 33 DEB", "group": "iridium-33-debris", "lat": -31.844205284320843, "lon": 2.32771772855347, "alt_km": 710.2882586421201, "timestamp": "2025-12-16T23:36:36.583243+00:00", "meta": {"OBJECT_NAME": "IRIDIUM 33 DEB", "OBJECT_ID": "1997-051FU", "EPOCH": "2025-12-16T00:46:08.937696", "MEAN_MOTION": 14.62616251, "ECCENTRICITY": 0.00275533, "INCLINATION": 86.2982, "RA_OF_ASC_NODE": 5.06, "ARG_OF_PERICENTER": 155.7384, "MEAN_ANOMALY": 204.5132, "EPHEMERIS_TYPE": 0, "CLASSIFICATION_TYPE": "U", "NORAD_CAT_ID": 34376, "ELEMENT_SET_NO": 999, "REV_AT_EPOCH": 88055, "BSTAR": 0.00097576326, "MEAN_MOTION_DOT": 5.007e-05, "MEAN_MOTION_DDOT": 0}, "tle": {"line1": "1 34376U 97051FU  25350.03204789  .00005007  00000+0  97576-3 0  9991", "line2": "2 34376  86.2982   5.0600 0027553 155.7384 204.5132 14.62616251880553"}}, "geometry": {"type": "Point", "coordinates": [2.32771772855347, -31.844205284320843]}}, {"type": "Feature", "properties": {"norad_id": 34486, "name": "IRIDIUM 33 DEB", "group": "iridium-33-debris", "lat": -27.322823728071487, "lon": 8.19874899025382, "alt_km": 591.0985731306037, "timestamp": "2025-12-16T23:36:36.583267+00:00", "meta": {"OBJECT_NAME": "IRIDIUM 33 DEB", "OBJECT_ID": "1997-051GB", "EPOCH": "2025-12-16T01:30:44.745696", "MEAN_MOTION": 14.95955927, "ECCENTRICITY": 0.00139106, "INCLINATION": 86.3931, "RA_OF_ASC_NODE": 10.4913, "ARG_OF_PERICENTER": 103.495, "MEAN_ANOMALY": 314.0445, "EPHEMERIS_TYPE": 0, "CLASSIFICATION_TYPE": "U", "NORAD_CAT_ID": 34486, "ELEMENT_SET_NO": 999, "REV_AT_EPOCH": 89036, "BSTAR": 0.0014513115, "MEAN_MOTION_DOT": 0.00016332, "MEAN_MOTION_DDOT": 0}, "tle": {"line1": "1 34486U 97051GB  25350.06301789  .00016332  00000+0  14513-2 0  9996", "line2": "2 34486  86.3931  10.4913 0013910 103.4950 314.0445 14.95955927890364"}}, "geometry": {"type": "Point", "coordinates": [8.19874899025382, -27.322823728071487]}}, {"type": "Feature", "properties": {"norad_id": 34487, "name": "IRIDIUM 33 DEB", "group": "iridium-33-debris", "lat": -83.48255465591552, "lon": -135.41121023112734, "alt_km": 775.5981932202012, "timestamp": "2025-12-16T23:36:36.583280+00:00", "meta": {"OBJECT_NAME": "IRIDIUM 33 DEB", "OBJECT_ID": "1997-051GC", "EPOCH": "2025-12-16T07:28:55.639776", "MEAN_MOTION": 14.43220771, "ECCENTRICITY": 0.0033014, "INCLINATION": 86.3434, "RA_OF_ASC_NODE": 10.8395, "ARG_OF_PERICENTER": 117.2406, "MEAN_ANOMALY": 257.9324, "EPHEMERIS_TYPE": 0, "CLASSIFICATION_TYPE": "U", "NORAD_CAT_ID": 34487, "ELEMENT_SET_NO": 999, "REV_AT_EPOCH": 88300, "BSTAR": 0.00017545097, "MEAN_MOTION_DOT": 6.14e-06, "MEAN_MOTION_DDOT": 0}, "tle": {"line1": "1 34487U 97051GC  25350.31175509  .00000614  00000+0  17545-3 0  9999", "line2": "2 34487  86.3434  10.8395 0033014 117.2406 257.9324 14.43220771883006"}}, "geometry": {"type": "Point", "coordinates": [-135.41121023112734, -83.48255465591552]}}, {"type": "Feature", "properties": {"norad_id": 34488, "name": "IRIDIUM 33 DEB", "group": "iridium-33-debris", "lat": 63.47710343086727, "lon": 116.30573343243525, "alt_km": 465.9846852680075, "timestamp": "2025-12-16T23:36:36.583291+00:00", "meta": {"OBJECT_NAME": "IRIDIUM 33 DEB", "OBJECT_ID": "1997-051GD", "EPOCH": "2025-12-16T07:24:42.620832", "MEAN_MOTION": 15.30313162, "ECCENTRICITY": 0.00121845, "INCLINATION": 86.3227, "RA_OF_ASC_NODE": 304.0447, "ARG_OF_PERICENTER": 45.675, "MEAN_ANOMALY": 314.5495, "EPHEMERIS_TYPE": 0, "CLASSIFICATION_TYPE": "U", "NORAD_CAT_ID": 34488, "ELEMENT_SET_NO": 999, "REV_AT_EPOCH": 89294, "BSTAR": 0.0033384649, "MEAN_MOTION_DOT": 0.00099188, "MEAN_MOTION_DDOT": 0}, "tle": {"line1": "1 34488U 97051GD  25350.30882663  .00099188  00000+0  33385-2 0  9998", "line2": "2 34488  86.3227 304.0447 0012184  45.6750 314.5495 15.30313162892940"}}, "geometry": {"type": "Point", "coordinates": [116.30573343243525, 63.47710343086727]}}, {"type": "Feature", "properties": {"norad_id": 34492, "name": "IRIDIUM 33 DEB", "group": "iridium-33-debris", "lat": 85.09331958160313, "lon": 18.875106062451625, "alt_km": 897.698457003682, "timestamp": "2025-12-16T23:36:36.583302+00:00", "meta": {"OBJECT_NAME": "IRIDIUM 33 DEB", "OBJECT_ID": "1997-051GH", "EPOCH": "2025-12-15T10:44:59.012736", "MEAN_MOTION": 14.25789641, "ECCENTRICITY": 0.01889008, "INCLINATION": 86.4708, "RA_OF_ASC_NODE": 333.5341, "ARG_OF_PERICENTER": 229.3611, "MEAN_ANOMALY": 260.3123, "EPHEMERIS_TYPE": 0, "CLASSIFICATION_TYPE": "U", "NORAD_CAT_ID": 34492, "ELEMENT_SET_NO": 999, "REV_AT_EPOCH": 85097, "BSTAR": 0.002450853, "MEAN_MOTION_DOT": 7.043e-05, "MEAN_MOTION_DDOT": 0}, "tle": {"line1": "1 34492U 97051GH  25349.44790524  .00007043  00000+0  24509-2 0  9997", "line2": "2 34492  86.4708 333.5341 0188900 229.3611 260.3123 14.25789641850972"}}, "geometry": {"type": "Point", "coordinates": [18.875106062451625, 85.09331958160313]}}, {"type": "Feature", "properties": {"norad_id": 34497, "name": "IRIDIUM 33 DEB", "group": "iridium-33-debris", "lat": -7.5766038622339815, "lon": 50.09223478087375, "alt_km": 753.8062303485895, "timestamp": "2025-12-16T23:36:36.583312+00:00", "meta": {"OBJECT_NAME": "IRIDIUM 33 DEB", "OBJECT_ID": "1997-051GN", "EPOCH": "2025-12-16T03:35:34.476576", "MEAN_MOTION": 14.27464272, "ECCENTRICITY": 0.00784657, "INCLINATION": 86.2776, "RA_OF_ASC_NODE": 50.9446, "ARG_OF_PERICENTER": 328.4277, "MEAN_ANOMALY": 60.2954, "EPHEMERIS_TYPE": 0, "CLASSIFICATION_TYPE": "U", "NORAD_CAT_ID": 34497, "ELEMENT_SET_NO": 999, "REV_AT_EPOCH": 86932, "BSTAR": 0.00047338082, "MEAN_MOTION_DOT": 1.218e-05, "MEAN_MOTION_DDOT": 0}, "tle": {"line1": "1 34497U 97051GN  25350.14970459  .00001218  00000+0  47338-3 0  9992", "line2": "2 34497  86.2776  50.9446 0078465 328.4277  60.2954 14.27464272869329"}}, "geometry": {"type": "Point", "coordinates": [50.09223478087375, -7.5766038622339815]}}, {"type": "Feature", "properties": {"norad_id": 34508, "name": "IRIDIUM 33 DEB", "group": "iridium-33-debris", "lat": -41.95320237740572, "lon": 97.57316588634686, "alt_km": 814.5056803312445, "timestamp": "2025-12-16T23:36:36.583323+00:00", "meta": {"OBJECT_NAME": "IRIDIUM 33 DEB", "OBJECT_ID": "1997-051GZ", "EPOCH": "2025-12-16T07:06:45.453888", "MEAN_MOTION": 14.38457385, "ECCENTRICITY": 0.0066459, "INCLINATION": 86.3703, "RA_OF_ASC_NODE": 101.1357, "ARG_OF_PERICENTER": 161.4347, "MEAN_ANOMALY": 198.9299, "EPHEMERIS_TYPE": 0, "CLASSIFICATION_TYPE": "U", "NORAD_CAT_ID": 34508, "ELEMENT_SET_NO": 999, "REV_AT_EPOCH": 87360, "BSTAR": 0.00097432475, "MEAN_MOTION_DOT": 3.07e-05, "MEAN_MOTION_DDOT": 0}, "tle": {"line1": "1 34508U 97051GZ  25350.29635942  .00003070  00000+0  97432-3 0  9994", "line2": "2 34508  86.3703 101.1357 0066459 161.4347 198.9299 14.38457385873602"}}, "geometry": {"type": "Point", "coordinates": [97.57316588634686, -41.95320237740572]}}, {"type": "Feature", "properties": {"norad_id": 34521, "name": "IRIDIUM 33 DEB", "group": "iridium-33-debris", "lat": 23.83713127038764, "lon": -152.92260296220087, "alt_km": 680.6848970206083, "timestamp": "2025-12-16T23:36:36.583334+00:00", "meta": {"OBJECT_NAME": "IRIDIUM 33 DEB", "OBJECT_ID": "1997-051HN", "EPOCH": "2025-12-16T03:12:23.329440", "MEAN_MOTION": 14.63397521, "ECCENTRICITY": 0.00019565, "INCLINATION": 86.3801, "RA_OF_ASC_NODE": 29.0543, "ARG_OF_PERICENTER": 197.2639, "MEAN_ANOMALY": 162.8507, "EPHEMERIS_TYPE": 0, "CLASSIFICATION_TYPE": "U", "NORAD_CAT_ID": 34521, "ELEMENT_SET_NO": 999, "REV_AT_EPOCH": 88522, "BSTAR": 0.00059079967, "MEAN_MOTION_DOT": 3.075e-05, "MEAN_MOTION_DDOT": 0}, "tle": {"line1": "1 34521U 97051HN  25350.13360335  .00003075  00000+0  59080-3 0  9995", "line2": "2 34521  86.3801  29.0543 0001956 197.2639 162.8507 14.63397521885229"}}, "geometry": {"type": "Point", "coordinates": [-152.92260296220087, 23.83713127038764]}}, {"type": "Feature", "properties": {"norad_id": 34525, "name": "IRIDIUM 33 DEB", "group": "iridium-33-debris", "lat": 22.440850567112086, "lon": 46.53373233949756, "alt_km": 746.4276323042004, "timestamp": "2025-12-16T23:36:36.583344+00:00", "meta": {"OBJECT_NAME": "IRIDIUM 33 DEB", "OBJECT_ID": "1997-051HS", "EPOCH": "2025-12-16T03:39:56.355840", "MEAN_MOTION": 14.42913658, "ECCENTRICITY": 0.00065914, "INCLINATION": 86.3727, "RA_OF_ASC_NODE": 45.3871, "ARG_OF_PERICENTER": 87.2888, "MEAN_ANOMALY": 301.3893, "EPHEMERIS_TYPE": 0, "CLASSIFICATION_TYPE": "U", "NORAD_CAT_ID": 34525, "ELEMENT_SET_NO": 999, "REV_AT_EPOCH": 88137, "BSTAR": 0.00032204715, "MEAN_MOTION_DOT": 1.096e-05, "MEAN_MOTION_DDOT": 0}, "tle": {"line1": "1 34525U 97051HS  25350.15273560  .00001096  00000+0  32205-3 0  9995", "line2": "2 34525  86.3727  45.3871 0006591  87.2888 301.3893 14.42913658881371"}}, "geometry": {"type": "Point", "coordinates": [46.53373233949756, 22.440850567112086]}}]}